UNKNOWN                 
1 82381U          26050.60140576  .00022275  00000+0  26251-2 0  9999
2 82381  98.3932 283.7710 0008287 294.9397  65.0955 14.84753391521018
UNKNOWN                 
1 82402U          26051.16286930  .00004975  00000+0  35193-3 0  9993
2 82402  86.6650 125.6060 0005998 262.3456  97.7098 15.04637441464906
UNKNOWN                 
1 82432U          26044.89251108  .00001674  00000+0  35650-3 0  9998
2 82432  74.0052 220.1076 0055410   7.7988 352.4024 14.58853164492113
UNKNOWN                 
1 82448U          26050.73759162  .00005923  00000+0  41685-3 0  9994
2 82448  85.8781 162.4496 0008284  24.7051 335.4578 15.04842035447415
UNKNOWN                 
1 82453U          26050.34889564  .00000002  00000+0  34753-3 0  9998
2 82453 102.1890  11.6950 0093840  80.3877 280.7773 12.39708513554562
UNKNOWN                 
1 82458U          26027.80523470  .00004849  00000+0  21370-2 0  9992
2 82458  66.5137  63.4517 0057759 335.2450  24.5873 14.23291843616591
UNKNOWN                 
1 82484U          26050.00276956  .00000100  00000+0  20178-3 0  9995
2 82484  99.3516  73.1059 0044801  22.6368 337.6734 13.55824238599883
UNKNOWN                 
1 82494U          26046.56981969  .00019283  00000+0  20517-2 0  9997
2 82494  74.0055 252.3990 0004002  20.5249 339.6092 14.88910384 94605
UNKNOWN                 
1 82500U          26050.85482106  .00003138  00000+0  14212-2 0  9998
2 82500  70.9638 217.5013 0117608   9.2860 351.0399 14.19103656628751
UNKNOWN                 
1 82524U          26051.42344029  .00002726  00000+0  85931-3 0  9998
2 82524  73.2802  48.0123 0132918 175.0135 336.0881 14.35943485587037
UNKNOWN                 
1 82529U          26051.19418222  .00000338  00000+0  57812-3 0  9998
2 82529  99.7818 137.3821 0239038  71.6883 319.0574 13.41182194599054
UNKNOWN                 
1 82560U          26050.35510531  .00001104  00000+0  92180-3 0  9995
2 82560  99.9951   3.0120 0010447 117.2301  35.3544 13.90861878621400
