CCSDS_OMM_VERS = 2.0
CREATION_DATE  = 
ORIGINATOR     = 

OBJECT_NAME    = UNKNOWN
OBJECT_ID      = 
CENTER_NAME    = EARTH
REF_FRAME      = TEME
TIME_SYSTEM    = UTC
MEAN_ELEMENT_THEORY = SGP/SGP4

EPOCH          = 2026-02-19T14:26:01.457664
MEAN_MOTION    = 14.84753391
ECCENTRICITY   = .0008287
INCLINATION    = 98.3932
RA_OF_ASC_NODE = 283.7710
ARG_OF_PERICENTER = 294.9397
MEAN_ANOMALY   = 65.0955

EPHEMERIS_TYPE = 0
CLASSIFICATION_TYPE = U
NORAD_CAT_ID   = 82381
ELEMENT_SET_NO = 999
REV_AT_EPOCH   = 52101
BSTAR          = .26251E-2
MEAN_MOTION_DOT = .22275E-3
MEAN_MOTION_DDOT = 0

CCSDS_OMM_VERS = 2.0
CREATION_DATE  = 
ORIGINATOR     = 

OBJECT_NAME    = UNKNOWN
OBJECT_ID      = 
CENTER_NAME    = EARTH
REF_FRAME      = TEME
TIME_SYSTEM    = UTC
MEAN_ELEMENT_THEORY = SGP/SGP4

EPOCH          = 2026-02-20T03:54:31.907520
MEAN_MOTION    = 15.04637441
ECCENTRICITY   = .0005998
INCLINATION    = 86.6650
RA_OF_ASC_NODE = 125.6060
ARG_OF_PERICENTER = 262.3456
MEAN_ANOMALY   = 97.7098

EPHEMERIS_TYPE = 0
CLASSIFICATION_TYPE = U
NORAD_CAT_ID   = 82402
ELEMENT_SET_NO = 999
REV_AT_EPOCH   = 46490
BSTAR          = .35193E-3
MEAN_MOTION_DOT = .4975E-4
MEAN_MOTION_DDOT = 0

CCSDS_OMM_VERS = 2.0
CREATION_DATE  = 
ORIGINATOR     = 

OBJECT_NAME    = UNKNOWN
OBJECT_ID      = 
CENTER_NAME    = EARTH
REF_FRAME      = TEME
TIME_SYSTEM    = UTC
MEAN_ELEMENT_THEORY = SGP/SGP4

EPOCH          = 2026-02-13T21:25:12.957312
MEAN_MOTION    = 14.58853164
ECCENTRICITY   = .005541
INCLINATION    = 74.0052
RA_OF_ASC_NODE = 220.1076
ARG_OF_PERICENTER = 7.7988
MEAN_ANOMALY   = 352.4024

EPHEMERIS_TYPE = 0
CLASSIFICATION_TYPE = U
NORAD_CAT_ID   = 82432
ELEMENT_SET_NO = 999
REV_AT_EPOCH   = 49211
BSTAR          = .3565E-3
MEAN_MOTION_DOT = .1674E-4
MEAN_MOTION_DDOT = 0

CCSDS_OMM_VERS = 2.0
CREATION_DATE  = 
ORIGINATOR     = 

OBJECT_NAME    = UNKNOWN
OBJECT_ID      = 
CENTER_NAME    = EARTH
REF_FRAME      = TEME
TIME_SYSTEM    = UTC
MEAN_ELEMENT_THEORY = SGP/SGP4

EPOCH          = 2026-02-19T17:42:07.915968
MEAN_MOTION    = 15.04842035
ECCENTRICITY   = .0008284
INCLINATION    = 85.8781
RA_OF_ASC_NODE = 162.4496
ARG_OF_PERICENTER = 24.7051
MEAN_ANOMALY   = 335.4578

EPHEMERIS_TYPE = 0
CLASSIFICATION_TYPE = U
NORAD_CAT_ID   = 82448
ELEMENT_SET_NO = 999
REV_AT_EPOCH   = 44741
BSTAR          = .41685E-3
MEAN_MOTION_DOT = .5923E-4
MEAN_MOTION_DDOT = 0

CCSDS_OMM_VERS = 2.0
CREATION_DATE  = 
ORIGINATOR     = 

OBJECT_NAME    = UNKNOWN
OBJECT_ID      = 
CENTER_NAME    = EARTH
REF_FRAME      = TEME
TIME_SYSTEM    = UTC
MEAN_ELEMENT_THEORY = SGP/SGP4

EPOCH          = 2026-02-19T08:22:24.583296
MEAN_MOTION    = 12.39708513
ECCENTRICITY   = .009384
INCLINATION    = 102.1890
RA_OF_ASC_NODE = 11.6950
ARG_OF_PERICENTER = 80.3877
MEAN_ANOMALY   = 280.7773

EPHEMERIS_TYPE = 0
CLASSIFICATION_TYPE = U
NORAD_CAT_ID   = 82453
ELEMENT_SET_NO = 999
REV_AT_EPOCH   = 55456
BSTAR          = .34753E-3
MEAN_MOTION_DOT = .2E-7
MEAN_MOTION_DDOT = 0

CCSDS_OMM_VERS = 2.0
CREATION_DATE  = 
ORIGINATOR     = 

OBJECT_NAME    = UNKNOWN
OBJECT_ID      = 
CENTER_NAME    = EARTH
REF_FRAME      = TEME
TIME_SYSTEM    = UTC
MEAN_ELEMENT_THEORY = SGP/SGP4

EPOCH          = 2026-01-27T19:19:32.278080
MEAN_MOTION    = 14.23291843
ECCENTRICITY   = .0057759
INCLINATION    = 66.5137
RA_OF_ASC_NODE = 63.4517
ARG_OF_PERICENTER = 335.2450
MEAN_ANOMALY   = 24.5873

EPHEMERIS_TYPE = 0
CLASSIFICATION_TYPE = U
NORAD_CAT_ID   = 82458
ELEMENT_SET_NO = 999
REV_AT_EPOCH   = 61659
BSTAR          = .2137E-2
MEAN_MOTION_DOT = .4849E-4
MEAN_MOTION_DDOT = 0

CCSDS_OMM_VERS = 2.0
CREATION_DATE  = 
ORIGINATOR     = 

OBJECT_NAME    = UNKNOWN
OBJECT_ID      = 
CENTER_NAME    = EARTH
REF_FRAME      = TEME
TIME_SYSTEM    = UTC
MEAN_ELEMENT_THEORY = SGP/SGP4

EPOCH          = 2026-02-19T00:03:59.289984
MEAN_MOTION    = 13.55824238
ECCENTRICITY   = .0044801
INCLINATION    = 99.3516
RA_OF_ASC_NODE = 73.1059
ARG_OF_PERICENTER = 22.6368
MEAN_ANOMALY   = 337.6734

EPHEMERIS_TYPE = 0
CLASSIFICATION_TYPE = U
NORAD_CAT_ID   = 82484
ELEMENT_SET_NO = 999
REV_AT_EPOCH   = 59988
BSTAR          = .20178E-3
MEAN_MOTION_DOT = .1E-5
MEAN_MOTION_DDOT = 0

CCSDS_OMM_VERS = 2.0
CREATION_DATE  = 
ORIGINATOR     = 

OBJECT_NAME    = UNKNOWN
OBJECT_ID      = 
CENTER_NAME    = EARTH
REF_FRAME      = TEME
TIME_SYSTEM    = UTC
MEAN_ELEMENT_THEORY = SGP/SGP4

EPOCH          = 2026-02-15T13:40:32.421216
MEAN_MOTION    = 14.88910384
ECCENTRICITY   = .0004002
INCLINATION    = 74.0055
RA_OF_ASC_NODE = 252.3990
ARG_OF_PERICENTER = 20.5249
MEAN_ANOMALY   = 339.6092

EPHEMERIS_TYPE = 0
CLASSIFICATION_TYPE = U
NORAD_CAT_ID   = 82494
ELEMENT_SET_NO = 999
REV_AT_EPOCH   = 9460
BSTAR          = .20517E-2
MEAN_MOTION_DOT = .19283E-3
MEAN_MOTION_DDOT = 0

CCSDS_OMM_VERS = 2.0
CREATION_DATE  = 
ORIGINATOR     = 

OBJECT_NAME    = UNKNOWN
OBJECT_ID      = 
CENTER_NAME    = EARTH
REF_FRAME      = TEME
TIME_SYSTEM    = UTC
MEAN_ELEMENT_THEORY = SGP/SGP4

EPOCH          = 2026-02-19T20:30:56.539584
MEAN_MOTION    = 14.19103656
ECCENTRICITY   = .0117608
INCLINATION    = 70.9638
RA_OF_ASC_NODE = 217.5013
ARG_OF_PERICENTER = 9.2860
MEAN_ANOMALY   = 351.0399

EPHEMERIS_TYPE = 0
CLASSIFICATION_TYPE = U
NORAD_CAT_ID   = 82500
ELEMENT_SET_NO = 999
REV_AT_EPOCH   = 62875
BSTAR          = .14212E-2
MEAN_MOTION_DOT = .3138E-4
MEAN_MOTION_DDOT = 0

CCSDS_OMM_VERS = 2.0
CREATION_DATE  = 
ORIGINATOR     = 

OBJECT_NAME    = UNKNOWN
OBJECT_ID      = 
CENTER_NAME    = EARTH
REF_FRAME      = TEME
TIME_SYSTEM    = UTC
MEAN_ELEMENT_THEORY = SGP/SGP4

EPOCH          = 2026-02-20T10:09:45.241056
MEAN_MOTION    = 14.35943485
ECCENTRICITY   = .0132918
INCLINATION    = 73.2802
RA_OF_ASC_NODE = 48.0123
ARG_OF_PERICENTER = 175.0135
MEAN_ANOMALY   = 336.0881

EPHEMERIS_TYPE = 0
CLASSIFICATION_TYPE = U
NORAD_CAT_ID   = 82524
ELEMENT_SET_NO = 999
REV_AT_EPOCH   = 58703
BSTAR          = .85931E-3
MEAN_MOTION_DOT = .2726E-4
MEAN_MOTION_DDOT = 0

CCSDS_OMM_VERS = 2.0
CREATION_DATE  = 
ORIGINATOR     = 

OBJECT_NAME    = UNKNOWN
OBJECT_ID      = 
CENTER_NAME    = EARTH
REF_FRAME      = TEME
TIME_SYSTEM    = UTC
MEAN_ELEMENT_THEORY = SGP/SGP4

EPOCH          = 2026-02-20T04:39:37.343808
MEAN_MOTION    = 13.41182194
ECCENTRICITY   = .0239038
INCLINATION    = 99.7818
RA_OF_ASC_NODE = 137.3821
ARG_OF_PERICENTER = 71.6883
MEAN_ANOMALY   = 319.0574

EPHEMERIS_TYPE = 0
CLASSIFICATION_TYPE = U
NORAD_CAT_ID   = 82529
ELEMENT_SET_NO = 999
REV_AT_EPOCH   = 59905
BSTAR          = .57812E-3
MEAN_MOTION_DOT = .338E-5
MEAN_MOTION_DDOT = 0

CCSDS_OMM_VERS = 2.0
CREATION_DATE  = 
ORIGINATOR     = 

OBJECT_NAME    = UNKNOWN
OBJECT_ID      = 
CENTER_NAME    = EARTH
REF_FRAME      = TEME
TIME_SYSTEM    = UTC
MEAN_ELEMENT_THEORY = SGP/SGP4

EPOCH          = 2026-02-19T08:31:21.098784
MEAN_MOTION    = 13.90861878
ECCENTRICITY   = .0010447
INCLINATION    = 99.9951
RA_OF_ASC_NODE = 3.0120
ARG_OF_PERICENTER = 117.2301
MEAN_ANOMALY   = 35.3544

EPHEMERIS_TYPE = 0
CLASSIFICATION_TYPE = U
NORAD_CAT_ID   = 82560
ELEMENT_SET_NO = 999
REV_AT_EPOCH   = 62140
BSTAR          = .9218E-3
MEAN_MOTION_DOT = .1104E-4
MEAN_MOTION_DDOT = 0

